[{"OBJECT_NAME":"ONEWEB-0102","OBJECT_ID":"2020-100A","EPOCH":"2026-03-09T20:57:22.472064","MEAN_MOTION":13.12443626,"ECCENTRICITY":0.00018552,"INCLINATION":87.8996,"RA_OF_ASC_NODE":10.3932,"ARG_OF_PERICENTER":87.529,"MEAN_ANOMALY":272.6051,"EPHEMERIS_TYPE":0,"CLASSIFICATION_TYPE":"U","NORAD_CAT_ID":47258,"ELEMENT_SET_NO":999,"REV_AT_EPOCH":25170,"BSTAR":-0.00065315668,"MEAN_MOTION_DOT":-2.22e-6,"MEAN_MOTION_DDOT":0},{"OBJECT_NAME":"NOAA 16 DEB","OBJECT_ID":"2000-055AM","EPOCH":"2026-03-09T06:40:45.212448","MEAN_MOTION":13.58382699,"ECCENTRICITY":0.02875785,"INCLINATION":98.9178,"RA_OF_ASC_NODE":193.3537,"ARG_OF_PERICENTER":275.2209,"MEAN_ANOMALY":81.618,"EPHEMERIS_TYPE":0,"CLASSIFICATION_TYPE":"U","NORAD_CAT_ID":41078,"ELEMENT_SET_NO":999,"REV_AT_EPOCH":50920,"BSTAR":0.0005870733,"MEAN_MOTION_DOT":5.18e-6,"MEAN_MOTION_DDOT":0}]
